{
  "type": "FeatureCollection",
  "features": [
    {
      "type": "Feature",
      "geometry": {
        "type": "Point",
        "coordinates": [
          -77.94167,
          39.66389
        ]
      },
      "properties": {
        "name": "Claud E. Kitchens Outdoor School at Fairview",
        "address": "12808 Draper Road, Clear Spring, MD 21722",
        "city": "Clear Spring",
        "fallback": true
      }
    },
    {
      "type": "Feature",
      "geometry": {
        "type": "Point",
        "coordinates": [
          -78.730398,
          39.652152
        ]
      },
      "properties": {
        "name": "Allegany College of Maryland",
        "address": "12401 Willowbrook Rd SE, Cumberland, MD 21502",
        "city": "Cumberland",
        "fallback": true
      }
    },
    {
      "type": "Feature",
      "geometry": {
        "type": "Point",
        "coordinates": [
          -78.196694,
          39.697194
        ]
      },
      "properties": {
        "name": "Hancock Middle-Senior High School",
        "address": "289 W Main St, Hancock, MD 21750",
        "city": "Hancock",
        "fallback": true
      }
    },
    {
      "type": "Feature",
      "geometry": {
        "type": "Point",
        "coordinates": [
          -77.63617,
          39.95588
        ]
      },
      "properties": {
        "name": "Chambersburg Area Middle School North (Faust area)",
        "address": "1957 Scotland Ave, Chambersburg, PA 17201",
        "city": "Chambersburg",
        "fallback": true
      }
    },
    {
      "type": "Feature",
      "geometry": {
        "type": "Point",
        "coordinates": [
          -77.346588,
          39.680494
        ]
      },
      "properties": {
        "name": "Mount St. Mary's University",
        "address": "16300 Old Emmitsburg Rd, Emmitsburg, MD 21727",
        "city": "Emmitsburg",
        "fallback": true
      }
    }
  ]
}