{
  "type": "FeatureCollection",
  "name": "BPP operational water hazards",
  "features": [
    {
      "type": "Feature",
      "properties": {
        "name": "Chesapeake Bay main stem",
        "hazard": "large_water_crossing",
        "policy": "BPP launch-site no-go when a predicted ground track crosses this polygon"
      },
      "geometry": {
        "type": "Polygon",
        "coordinates": [[
          [-76.0910, 39.5530],
          [-76.1550, 39.4660],
          [-76.2450, 39.3820],
          [-76.3190, 39.3030],
          [-76.4180, 39.2080],
          [-76.4920, 39.0810],
          [-76.5350, 38.9290],
          [-76.5120, 38.7610],
          [-76.4490, 38.5700],
          [-76.4100, 38.3520],
          [-76.3150, 38.0550],
          [-76.1600, 37.7150],
          [-75.9150, 37.8700],
          [-76.0400, 38.1500],
          [-76.1160, 38.3880],
          [-76.1550, 38.6200],
          [-76.1730, 38.8250],
          [-76.1450, 39.0040],
          [-76.2180, 39.1590],
          [-76.2970, 39.2640],
          [-76.2670, 39.3560],
          [-76.1710, 39.4490],
          [-76.0910, 39.5530]
        ]]
      }
    }
  ]
}
