{
"type": "FeatureCollection",
"name": "bpp_poi",
"crs": { "type": "name", "properties": { "name": "urn:ogc:def:crs:OGC:1.3:CRS84" } },
"features": [
    {
        "type"      : "Feature",
        "properties": {
            "name"   : "Manufacturing Building",
            "address": "8197 Regents Dr, College Park, MD 20742",
            "longitude"     : -76.93928,
            "latitude"      : 38.99282
        },
        "geometry"  : {
            "type"       : "Point",
            "coordinates": [
                -76.93928,
                38.99282
            ]
        }
    },
    {
        "type"      : "Feature",
        "properties": {
            "name"   : "Shrewsbury Amish Market",
            "address": "12025 Susquehanna Trail, Glen Rock, PA 17327",
            "longitude"     : -76.67920,
            "latitude"      : 39.80506
        },
        "geometry"  : {
            "type"       : "Point",
            "coordinates": [
                -76.67920,
                39.80506
            ]
        }
    }
]
}